     2              NAVIGATION DATA                         RINEX VERSION / TYPE
CCRINEXN V1.6.0 UX  CDDIS               20-NOV-25 23:31     PGM / RUN BY / DATE 
IGS BROADCAST EPHEMERIS FILE                                COMMENT             
    0.1956D-07 -0.1490D-07 -0.1192D-06  0.1788D-06          ION ALPHA           
    0.1290D+06 -0.1475D+06  0.0000D+00 -0.6554D+05          ION BETA            
   -0.186264514923D-08-0.444089209850D-14   503808     2393 DELTA-UTC: A0,A1,T,W
    18                                                      LEAP SECONDS        
                                                            END OF HEADER       
 3 25 11 19 10  0  0.0 0.641474034637D-03-0.761701812735D-11 0.000000000000D+00
    0.400000000000D+02-0.957500000000D+02 0.359586406789D-08-0.257531959112D+01
   -0.492297112942D-05 0.630697456654D-02 0.109523534775D-04 0.515368539238D+04
    0.295200000000D+06 0.106170773506D-06-0.282535998976D+00-0.149011611938D-07
    0.992392495988D+00 0.183750000000D+03 0.122638464965D+01-0.737459289568D-08
    0.165721188667D-09 0.100000000000D+01 0.239300000000D+04 0.000000000000D+00
    0.200000000000D+01 0.000000000000D+00 0.139698386192D-08 0.400000000000D+02
    0.288018000000D+06 0.400000000000D+01 0.000000000000D+00 0.000000000000D+00
 4 25 11 19 10  0  0.0 0.253519974649D-04 0.284217094304D-11 0.000000000000D+00
    0.219000000000D+03 0.210937500000D+02 0.457197615544D-08 0.581557996293D+00
    0.106543302536D-05 0.365258194506D-02 0.708550214768D-05 0.515375911331D+04
    0.295200000000D+06 0.000000000000D+00 0.788895611389D+00 0.186264514923D-08
    0.969433392358D+00 0.243500000000D+03-0.295962175272D+01-0.797497504686D-08
    0.397516558160D-09 0.100000000000D+01 0.239300000000D+04 0.000000000000D+00
    0.200000000000D+01 0.000000000000D+00-0.465661287308D-08 0.219000000000D+03
    0.292068000000D+06 0.400000000000D+01 0.000000000000D+00 0.000000000000D+00
 5 25 11 19 10  0  0.0-0.223926268518D-03-0.682121026330D-12 0.000000000000D+00
    0.930000000000D+02-0.116656250000D+03 0.394123559685D-08 0.108743242315D+01
   -0.597350299358D-05 0.547241594177D-02 0.102203339338D-04 0.515365384293D+04
    0.295200000000D+06-0.121071934700D-06-0.340897677700D+00-0.223517417908D-07
    0.979000673250D+00 0.194968750000D+03 0.143894246262D+01-0.770710674622D-08
    0.678599694973D-10 0.100000000000D+01 0.239300000000D+04 0.000000000000D+00
    0.200000000000D+01 0.000000000000D+00-0.107102096081D-07 0.930000000000D+02
    0.288018000000D+06 0.400000000000D+01 0.000000000000D+00 0.000000000000D+00
 6 25 11 19 10  0  0.0-0.574871432036D-03-0.738964445190D-11 0.000000000000D+00
    0.800000000000D+01-0.787812500000D+02 0.418231706744D-08-0.110604279359D+01
   -0.429525971413D-05 0.368077971507D-02 0.210292637348D-05 0.515368157578D+04
    0.295200000000D+06-0.502914190292D-07-0.131865830990D+01-0.186264514923D-07
    0.987387311959D+00 0.354781250000D+03-0.693300552168D+00-0.816676875013D-08
   -0.118219210019D-09 0.100000000000D+01 0.239300000000D+04 0.000000000000D+00
    0.200000000000D+01 0.000000000000D+00 0.372529029846D-08 0.800000000000D+01
    0.288078000000D+06 0.400000000000D+01 0.000000000000D+00 0.000000000000D+00
 7 25 11 19 10  0  0.0-0.108891166747D-03-0.557065504836D-11 0.000000000000D+00
    0.150000000000D+02-0.180625000000D+02 0.490770442559D-08-0.209109283498D+01
   -0.987201929092D-06 0.199678988429D-01 0.543333590031D-05 0.515365414047D+04
    0.295200000000D+06 0.271946191788D-06 0.179870201857D+01-0.763684511185D-07
    0.950240272887D+00 0.264531250000D+03-0.201645690214D+01-0.782604027170D-08
   -0.309298597814D-09 0.100000000000D+01 0.239300000000D+04 0.000000000000D+00
    0.200000000000D+01 0.000000000000D+00-0.107102096081D-07 0.150000000000D+02
    0.288024000000D+06 0.400000000000D+01 0.000000000000D+00 0.000000000000D+00
 8 25 11 19 10  0  0.0 0.521320849657D-03-0.272848410532D-11 0.000000000000D+00
    0.540000000000D+02 0.119562500000D+03 0.478091342995D-08 0.780234403437D+00
    0.632926821709D-05 0.110414441442D-01 0.416673719883D-05 0.515364941216D+04
    0.295200000000D+06-0.596046447754D-07-0.243539983741D+01 0.216066837311D-06
    0.945271051774D+00 0.289906250000D+03 0.475490980325D+00-0.841749347953D-08
    0.181793286706D-09 0.100000000000D+01 0.239300000000D+04 0.000000000000D+00
    0.200000000000D+01 0.000000000000D+00 0.465661287308D-08 0.540000000000D+02
    0.294649000000D+06 0.400000000000D+01 0.000000000000D+00 0.000000000000D+00
 9 25 11 19 10  0  0.0 0.762811396271D-03 0.261479726760D-11 0.000000000000D+00
    0.890000000000D+02 0.180312500000D+02 0.461769234542D-08 0.132314284724D+01
    0.765547156334D-06 0.352288025897D-02 0.774860382080D-05 0.515360272789D+04
    0.295200000000D+06 0.111758708954D-07 0.725394670731D+00-0.409781932831D-07
    0.963571204586D+00 0.228468750000D+03 0.205207249859D+01-0.792140138673D-08
    0.466090843126D-09 0.100000000000D+01 0.239300000000D+04 0.000000000000D+00
    0.200000000000D+01 0.000000000000D+00 0.465661300000D-09 0.890000000000D+02
    0.288030000000D+06 0.400000000000D+01 0.000000000000D+00 0.000000000000D+00
10 25 11 19 10  0  0.0-0.563594978303D-03-0.500222085975D-11 0.000000000000D+00
    0.370000000000D+02-0.965625000000D+02 0.350050295286D-08 0.277884522060D+01
   -0.505894422531D-05 0.108484714292D-01 0.105611979961D-04 0.515365682221D+04
    0.295200000000D+06 0.745058059692D-08-0.285045058551D+00-0.163912773132D-06
    0.991950372886D+00 0.193843750000D+03-0.229648848923D+01-0.725744515886D-08
    0.985755346381D-10 0.100000000000D+01 0.239300000000D+04 0.000000000000D+00
    0.200000000000D+01 0.000000000000D+00 0.232830643654D-08 0.370000000000D+02
    0.289578000000D+06 0.400000000000D+01 0.000000000000D+00 0.000000000000D+00
11 25 11 19 10  0  0.0-0.539888162166D-03 0.136424205266D-10 0.000000000000D+00
    0.270000000000D+02-0.813750000000D+02 0.470805325217D-08-0.135527999022D+00
   -0.421144068241D-05 0.227534538135D-02 0.179931521416D-05 0.515375031662D+04
    0.295200000000D+06-0.931322574616D-08-0.129758288739D+01 0.558793544769D-07
    0.964236700649D+00 0.349656250000D+03-0.229003278974D+01-0.842035074141D-08
   -0.147863301957D-09 0.100000000000D+01 0.239300000000D+04 0.000000000000D+00
    0.282842707634D+01 0.000000000000D+00-0.884756445885D-08 0.539000000000D+03
    0.288025000000D+06 0.400000000000D+01 0.000000000000D+00 0.000000000000D+00
12 25 11 19 10  0  0.0-0.603760126978D-03-0.682121026330D-12 0.000000000000D+00
    0.240000000000D+02 0.597812500000D+02 0.404623997071D-08-0.273604324535D+01
    0.315718352795D-05 0.892603641842D-02 0.115521252155D-04 0.515360861969D+04
    0.295200000000D+06 0.502914190292D-07 0.291601447180D+01-0.186264514923D-07
    0.959944528263D+00 0.154781250000D+03 0.152279590873D+01-0.751781314709D-08
   -0.319656172106D-09 0.100000000000D+01 0.239300000000D+04 0.000000000000D+00
    0.200000000000D+01 0.000000000000D+00-0.125728547573D-07 0.240000000000D+02
    0.288018000000D+06 0.400000000000D+01 0.000000000000D+00 0.000000000000D+00
13 25 11 19 10  0  0.0 0.693812966347D-03-0.682121026330D-12 0.000000000000D+00
    0.105000000000D+03 0.162812500000D+02 0.455626121514D-08 0.483079456781D+00
    0.101886689663D-05 0.983534590341D-02 0.696443021297D-05 0.515366789627D+04
    0.295200000000D+06-0.558793544769D-07 0.899084004058D+00 0.800937414169D-07
    0.975092891367D+00 0.252093750000D+03 0.100881628081D+01-0.803712049261D-08
    0.347514475373D-09 0.100000000000D+01 0.239300000000D+04 0.000000000000D+00
    0.200000000000D+01 0.000000000000D+00-0.111758708954D-07 0.105000000000D+03
    0.288018000000D+06 0.400000000000D+01 0.000000000000D+00 0.000000000000D+00
14 25 11 19 10  0  0.0 0.715420581400D-03 0.306954461848D-11 0.000000000000D+00
    0.187000000000D+03 0.668750000000D+02 0.440304054717D-08-0.291797262130D+01
    0.340864062309D-05 0.632212671917D-02 0.113099813461D-04 0.515364903259D+04
    0.295200000000D+06-0.391155481338D-07 0.286306285724D+01-0.707805156708D-07
    0.943237894079D+00 0.152156250000D+03-0.276464655611D+01-0.776710924556D-08
   -0.313941648358D-09 0.100000000000D+01 0.239300000000D+04 0.000000000000D+00
    0.200000000000D+01 0.000000000000D+00-0.791624188423D-08 0.699000000000D+03
    0.288018000000D+06 0.400000000000D+01 0.000000000000D+00 0.000000000000D+00
16 25 11 19 10  0  0.0 0.149872619659D-03 0.795807864051D-11 0.000000000000D+00
    0.700000000000D+02 0.570625000000D+02 0.416981654674D-08 0.174745373365D+01
    0.285729765892D-05 0.148301653098D-01 0.112112611532D-04 0.515360852432D+04
    0.295200000000D+06-0.277534127235D-06 0.293314408534D+01-0.135973095894D-06
    0.959140461673D+00 0.167187500000D+03 0.906937823132D+00-0.781996859022D-08
   -0.328942273195D-09 0.100000000000D+01 0.239300000000D+04 0.000000000000D+00
    0.200000000000D+01 0.000000000000D+00-0.102445483208D-07 0.700000000000D+02
    0.288018000000D+06 0.400000000000D+01 0.000000000000D+00 0.000000000000D+00
17 25 11 19 10  0  0.0 0.277678482234D-04-0.131876731757D-10 0.000000000000D+00
    0.500000000000D+01 0.107687500000D+03 0.460447750926D-08 0.653114962025D+00
    0.550597906113D-05 0.131347600836D-01 0.364333391190D-05 0.515379292107D+04
    0.295200000000D+06-0.931322574615D-07-0.233227824169D+01-0.219792127609D-06
    0.960912283682D+00 0.306906250000D+03-0.116064115067D+01-0.851428322550D-08
    0.326442169055D-09 0.100000000000D+01 0.239300000000D+04 0.000000000000D+00
    0.200000000000D+01 0.000000000000D+00-0.111758708954D-07 0.500000000000D+01
    0.288018000000D+06 0.400000000000D+01 0.000000000000D+00 0.000000000000D+00
